[{"OBJECT_NAME":"LEMUR-2-EMBRIONOVIS","OBJECT_ID":"2023-084AQ","EPOCH":"2026-03-09T22:21:55.974240","MEAN_MOTION":15.34650722,"ECCENTRICITY":0.00082915,"INCLINATION":97.613,"RA_OF_ASC_NODE":209.6192,"ARG_OF_PERICENTER":311.1934,"MEAN_ANOMALY":48.8593,"EPHEMERIS_TYPE":0,"CLASSIFICATION_TYPE":"U","NORAD_CAT_ID":56970,"ELEMENT_SET_NO":999,"REV_AT_EPOCH":15244,"BSTAR":0.00028007408,"MEAN_MOTION_DOT":9.331e-5,"MEAN_MOTION_DDOT":0},{"OBJECT_NAME":"STARLINK-32712","OBJECT_ID":"2024-251B","EPOCH":"2026-03-09T22:20:57.193728","MEAN_MOTION":15.30216568,"ECCENTRICITY":0.00022377,"INCLINATION":53.1619,"RA_OF_ASC_NODE":334.3063,"ARG_OF_PERICENTER":150.1412,"MEAN_ANOMALY":209.9717,"EPHEMERIS_TYPE":0,"CLASSIFICATION_TYPE":"U","NORAD_CAT_ID":62433,"ELEMENT_SET_NO":999,"REV_AT_EPOCH":6798,"BSTAR":0.0013565253,"MEAN_MOTION_DOT":0.00040056,"MEAN_MOTION_DDOT":0}]
